CCSDS_OMM_VERS = 2.0
CREATION_DATE  = 
ORIGINATOR     = 

OBJECT_NAME    = SL-4 R/B
OBJECT_ID      = 2014-021B
CENTER_NAME    = EARTH
REF_FRAME      = TEME
TIME_SYSTEM    = UTC
MEAN_ELEMENT_THEORY = SGP/SGP4

EPOCH          = 2026-01-28T21:01:30.438336
MEAN_MOTION    = 15.37932933
ECCENTRICITY   = .00990341
INCLINATION    = 51.6052
RA_OF_ASC_NODE = 171.3120
ARG_OF_PERICENTER = 317.7837
MEAN_ANOMALY   = 41.5550

EPHEMERIS_TYPE = 0
CLASSIFICATION_TYPE = U
NORAD_CAT_ID   = 39679
ELEMENT_SET_NO = 999
REV_AT_EPOCH   = 65014
BSTAR          = .39303553E-3
MEAN_MOTION_DOT = .17219E-3
MEAN_MOTION_DDOT = 0

CCSDS_OMM_VERS = 2.0
CREATION_DATE  = 
ORIGINATOR     = 

OBJECT_NAME    = ALOS-2
OBJECT_ID      = 2014-029A
CENTER_NAME    = EARTH
REF_FRAME      = TEME
TIME_SYSTEM    = UTC
MEAN_ELEMENT_THEORY = SGP/SGP4

EPOCH          = 2026-01-27T11:06:30.475008
MEAN_MOTION    = 14.79473850
ECCENTRICITY   = .00014672
INCLINATION    = 97.9188
RA_OF_ASC_NODE = 126.6510
ARG_OF_PERICENTER = 100.4748
MEAN_ANOMALY   = 259.6629

EPHEMERIS_TYPE = 0
CLASSIFICATION_TYPE = U
NORAD_CAT_ID   = 39766
ELEMENT_SET_NO = 999
REV_AT_EPOCH   = 63077
BSTAR          = .78528944E-4
MEAN_MOTION_DOT = .535E-5
MEAN_MOTION_DDOT = 0

CCSDS_OMM_VERS = 2.0
CREATION_DATE  = 
ORIGINATOR     = 

OBJECT_NAME    = YAOGAN-29
OBJECT_ID      = 2015-069A
CENTER_NAME    = EARTH
REF_FRAME      = TEME
TIME_SYSTEM    = UTC
MEAN_ELEMENT_THEORY = SGP/SGP4

EPOCH          = 2026-01-29T12:36:06.383232
MEAN_MOTION    = 14.82949639
ECCENTRICITY   = .0002868
INCLINATION    = 98.0195
RA_OF_ASC_NODE = 57.8434
ARG_OF_PERICENTER = 101.7728
MEAN_ANOMALY   = 258.3807

EPHEMERIS_TYPE = 0
CLASSIFICATION_TYPE = U
NORAD_CAT_ID   = 41038
ELEMENT_SET_NO = 999
REV_AT_EPOCH   = 55007
BSTAR          = .12077E-3
MEAN_MOTION_DOT = .926E-5
MEAN_MOTION_DDOT = 0

CCSDS_OMM_VERS = 2.0
CREATION_DATE  = 
ORIGINATOR     = 

OBJECT_NAME    = ASTRO-H (HITOMI)
OBJECT_ID      = 2016-012A
CENTER_NAME    = EARTH
REF_FRAME      = TEME
TIME_SYSTEM    = UTC
MEAN_ELEMENT_THEORY = SGP/SGP4

EPOCH          = 2026-01-28T16:53:54.221856
MEAN_MOTION    = 15.09706054
ECCENTRICITY   = .00099318
INCLINATION    = 30.9987
RA_OF_ASC_NODE = 254.5277
ARG_OF_PERICENTER = 290.9559
MEAN_ANOMALY   = 69.0016

EPHEMERIS_TYPE = 0
CLASSIFICATION_TYPE = U
NORAD_CAT_ID   = 41337
ELEMENT_SET_NO = 999
REV_AT_EPOCH   = 54618
BSTAR          = .26144388E-3
MEAN_MOTION_DOT = .4417E-4
MEAN_MOTION_DDOT = 0

CCSDS_OMM_VERS = 2.0
CREATION_DATE  = 
ORIGINATOR     = 

OBJECT_NAME    = HXMT (HUIYAN)
OBJECT_ID      = 2017-034A
CENTER_NAME    = EARTH
REF_FRAME      = TEME
TIME_SYSTEM    = UTC
MEAN_ELEMENT_THEORY = SGP/SGP4

EPOCH          = 2026-01-29T12:58:09.329664
MEAN_MOTION    = 15.16943385
ECCENTRICITY   = .0032337
INCLINATION    = 43.0123
RA_OF_ASC_NODE = 234.2416
ARG_OF_PERICENTER = 344.7589
MEAN_ANOMALY   = 15.2282

EPHEMERIS_TYPE = 0
CLASSIFICATION_TYPE = U
NORAD_CAT_ID   = 42758
ELEMENT_SET_NO = 999
REV_AT_EPOCH   = 47659
BSTAR          = .35895E-3
MEAN_MOTION_DOT = .7071E-4
MEAN_MOTION_DDOT = 0

CCSDS_OMM_VERS = 2.0
CREATION_DATE  = 
ORIGINATOR     = 

OBJECT_NAME    = CZ-2C R/B
OBJECT_ID      = 2018-054D
CENTER_NAME    = EARTH
REF_FRAME      = TEME
TIME_SYSTEM    = UTC
MEAN_ELEMENT_THEORY = SGP/SGP4

EPOCH          = 2026-01-28T20:29:53.722464
MEAN_MOTION    = 15.89454611
ECCENTRICITY   = .00133997
INCLINATION    = 35.1295
RA_OF_ASC_NODE = 218.3426
ARG_OF_PERICENTER = 276.0136
MEAN_ANOMALY   = 83.9075

EPHEMERIS_TYPE = 0
CLASSIFICATION_TYPE = U
NORAD_CAT_ID   = 43521
ELEMENT_SET_NO = 999
REV_AT_EPOCH   = 42251
BSTAR          = .99362702E-3
MEAN_MOTION_DOT = .304841E-2
MEAN_MOTION_DDOT = .34291617E-4

CCSDS_OMM_VERS = 2.0
CREATION_DATE  = 
ORIGINATOR     = 

OBJECT_NAME    = SAOCOM 1A
OBJECT_ID      = 2018-076A
CENTER_NAME    = EARTH
REF_FRAME      = TEME
TIME_SYSTEM    = UTC
MEAN_ELEMENT_THEORY = SGP/SGP4

EPOCH          = 2026-01-28T22:18:05.166144
MEAN_MOTION    = 14.82171821
ECCENTRICITY   = .00014625
INCLINATION    = 97.8867
RA_OF_ASC_NODE = 217.6667
ARG_OF_PERICENTER = 81.3911
MEAN_ANOMALY   = 278.7468

EPHEMERIS_TYPE = 0
CLASSIFICATION_TYPE = U
NORAD_CAT_ID   = 43641
ELEMENT_SET_NO = 999
REV_AT_EPOCH   = 39547
BSTAR          = .83848798E-4
MEAN_MOTION_DOT = .616E-5
MEAN_MOTION_DDOT = 0

CCSDS_OMM_VERS = 2.0
CREATION_DATE  = 
ORIGINATOR     = 

OBJECT_NAME    = H-2A R/B
OBJECT_ID      = 2018-084L
CENTER_NAME    = EARTH
REF_FRAME      = TEME
TIME_SYSTEM    = UTC
MEAN_ELEMENT_THEORY = SGP/SGP4

EPOCH          = 2026-01-29T11:58:54.253920
MEAN_MOTION    = 15.39586023
ECCENTRICITY   = .0026087
INCLINATION    = 98.8762
RA_OF_ASC_NODE = 238.5618
ARG_OF_PERICENTER = 157.7621
MEAN_ANOMALY   = 202.4758

EPHEMERIS_TYPE = 0
CLASSIFICATION_TYPE = U
NORAD_CAT_ID   = 43682
ELEMENT_SET_NO = 999
REV_AT_EPOCH   = 39974
BSTAR          = .76911E-3
MEAN_MOTION_DOT = .30611E-3
MEAN_MOTION_DDOT = 0

CCSDS_OMM_VERS = 2.0
CREATION_DATE  = 
ORIGINATOR     = 

OBJECT_NAME    = SAOCOM 1B
OBJECT_ID      = 2020-059A
CENTER_NAME    = EARTH
REF_FRAME      = TEME
TIME_SYSTEM    = UTC
MEAN_ELEMENT_THEORY = SGP/SGP4

EPOCH          = 2026-01-29T12:00:51.592896
MEAN_MOTION    = 14.82151738
ECCENTRICITY   = .0001389
INCLINATION    = 97.8865
RA_OF_ASC_NODE = 217.3280
ARG_OF_PERICENTER = 83.8199
MEAN_ANOMALY   = 276.3172

EPHEMERIS_TYPE = 0
CLASSIFICATION_TYPE = U
NORAD_CAT_ID   = 46265
ELEMENT_SET_NO = 999
REV_AT_EPOCH   = 29294
BSTAR          = .1334E-3
MEAN_MOTION_DOT = .101E-4
MEAN_MOTION_DDOT = 0

CCSDS_OMM_VERS = 2.0
CREATION_DATE  = 
ORIGINATOR     = 

OBJECT_NAME    = CSS (TIANHE)
OBJECT_ID      = 2021-035A
CENTER_NAME    = EARTH
REF_FRAME      = TEME
TIME_SYSTEM    = UTC
MEAN_ELEMENT_THEORY = SGP/SGP4

EPOCH          = 2026-01-29T11:13:14.858976
MEAN_MOTION    = 15.61300658
ECCENTRICITY   = .0009214
INCLINATION    = 41.4674
RA_OF_ASC_NODE = 86.5141
ARG_OF_PERICENTER = 30.7035
MEAN_ANOMALY   = 329.4341

EPHEMERIS_TYPE = 0
CLASSIFICATION_TYPE = U
NORAD_CAT_ID   = 48274
ELEMENT_SET_NO = 999
REV_AT_EPOCH   = 27148
BSTAR          = .4075E-3
MEAN_MOTION_DOT = .35517E-3
MEAN_MOTION_DDOT = 0

CCSDS_OMM_VERS = 2.0
CREATION_DATE  = 
ORIGINATOR     = 

OBJECT_NAME    = COSMOS 2550
OBJECT_ID      = 2021-056A
CENTER_NAME    = EARTH
REF_FRAME      = TEME
TIME_SYSTEM    = UTC
MEAN_ELEMENT_THEORY = SGP/SGP4

EPOCH          = 2026-01-26T03:10:39.828288
MEAN_MOTION    = 15.33840202
ECCENTRICITY   = .00083094
INCLINATION    = 67.1441
RA_OF_ASC_NODE = 169.6578
ARG_OF_PERICENTER = 269.8947
MEAN_ANOMALY   = 90.1255

EPHEMERIS_TYPE = 0
CLASSIFICATION_TYPE = U
NORAD_CAT_ID   = 48865
ELEMENT_SET_NO = 999
REV_AT_EPOCH   = 25693
BSTAR          = .322698E-6
MEAN_MOTION_DOT = -.181E-5
MEAN_MOTION_DDOT = 0

CCSDS_OMM_VERS = 2.0
CREATION_DATE  = 
ORIGINATOR     = 

OBJECT_NAME    = CZ-2C R/B
OBJECT_ID      = 2022-058K
CENTER_NAME    = EARTH
REF_FRAME      = TEME
TIME_SYSTEM    = UTC
MEAN_ELEMENT_THEORY = SGP/SGP4

EPOCH          = 2026-01-29T12:22:43.752288
MEAN_MOTION    = 15.51514806
ECCENTRICITY   = .0042507
INCLINATION    = 50.1878
RA_OF_ASC_NODE = 159.3776
ARG_OF_PERICENTER = 35.0999
MEAN_ANOMALY   = 325.2758

EPHEMERIS_TYPE = 0
CLASSIFICATION_TYPE = U
NORAD_CAT_ID   = 52794
ELEMENT_SET_NO = 999
REV_AT_EPOCH   = 20404
BSTAR          = .62102E-3
MEAN_MOTION_DOT = .38595E-3
MEAN_MOTION_DDOT = 0

