SL-4 R/B                
1 39679U 14021B   26028.87604674  .00017219  00000+0  39304-3 0  9993
2 39679  51.6052 171.3120 0099034 317.7837  41.5550 15.37932933650142
ALOS-2                  
1 39766U 14029A   26027.46285272  .00000535  00000+0  78529-4 0  9997
2 39766  97.9188 126.6510 0001467 100.4748 259.6629 14.79473850630778
YAOGAN-29               
1 41038U 15069A   26029.52507388  .00000926  00000+0  12077-3 0  9990
2 41038  98.0195  57.8434 0002868 101.7728 258.3807 14.82949639550076
ASTRO-H (HITOMI)        
1 41337U 16012A   26028.70409979  .00004417  00000+0  26144-3 0  9996
2 41337  30.9987 254.5277 0009931 290.9559  69.0016 15.09706054546182
HXMT (HUIYAN)           
1 42758U 17034A   26029.54038576  .00007071  00000+0  35895-3 0  9995
2 42758  43.0123 234.2416 0032337 344.7589  15.2282 15.16943385476597
CZ-2C R/B               
1 43521U 18054D   26028.85409401  .00304841  34292-4  99363-3 0  9999
2 43521  35.1295 218.3426 0013399 276.0136  83.9075 15.89454611422518
SAOCOM 1A               
1 43641U 18076A   26028.92922646  .00000616  00000+0  83849-4 0  9996
2 43641  97.8867 217.6667 0001462  81.3911 278.7468 14.82171821395471
H-2A R/B                
1 43682U 18084L   26029.49923905  .00030611  00000+0  76911-3 0  9991
2 43682  98.8762 238.5618 0026087 157.7621 202.4758 15.39586023399742
SAOCOM 1B               
1 46265U 20059A   26029.50059714  .00001010  00000+0  13340-3 0  9994
2 46265  97.8865 217.3280 0001389  83.8199 276.3172 14.82151738292944
CSS (TIANHE)            
1 48274U 21035A   26029.46753309  .00035517  00000+0  40750-3 0  9991
2 48274  41.4674  86.5141 0009214  30.7035 329.4341 15.61300658271485
COSMOS 2550             
1 48865U 21056A   26026.13240542 -.00000181  00000+0  32270-6 0  9992
2 48865  67.1441 169.6578 0008309 269.8947  90.1255 15.33840202256938
CZ-2C R/B               
1 52794U 22058K   26029.51578417  .00038595  00000+0  62102-3 0  9994
2 52794  50.1878 159.3776 0042507  35.0999 325.2758 15.51514806204047
